[{"OBJECT_NAME":"COSMOS 2428","OBJECT_ID":"2007-029A","EPOCH":"2026-03-09T23:01:40.069056","MEAN_MOTION":14.1294624,"ECCENTRICITY":0.00091204,"INCLINATION":70.9433,"RA_OF_ASC_NODE":202.7763,"ARG_OF_PERICENTER":276.7113,"MEAN_ANOMALY":83.297,"EPHEMERIS_TYPE":0,"CLASSIFICATION_TYPE":"U","NORAD_CAT_ID":31792,"ELEMENT_SET_NO":999,"REV_AT_EPOCH":96413,"BSTAR":6.0875257e-5,"MEAN_MOTION_DOT":6.6e-7,"MEAN_MOTION_DDOT":0},{"OBJECT_NAME":"CZ-6A DEB","OBJECT_ID":"2024-140TG","EPOCH":"2026-03-09T14:44:33.139680","MEAN_MOTION":14.1968542,"ECCENTRICITY":0.0049643,"INCLINATION":89.0098,"RA_OF_ASC_NODE":286.9322,"ARG_OF_PERICENTER":138.8948,"MEAN_ANOMALY":221.5999,"EPHEMERIS_TYPE":0,"CLASSIFICATION_TYPE":"U","NORAD_CAT_ID":61295,"ELEMENT_SET_NO":999,"REV_AT_EPOCH":7915,"BSTAR":0.00040205,"MEAN_MOTION_DOT":8.75e-6,"MEAN_MOTION_DDOT":0}]
